[{"OBJECT_NAME":"STARLINK-35822","OBJECT_ID":"2025-254Q","EPOCH":"2026-03-09T18:20:51.906624","MEAN_MOTION":15.30194591,"ECCENTRICITY":0.00010385,"INCLINATION":53.1587,"RA_OF_ASC_NODE":232.3529,"ARG_OF_PERICENTER":86.406,"MEAN_ANOMALY":273.706,"EPHEMERIS_TYPE":0,"CLASSIFICATION_TYPE":"U","NORAD_CAT_ID":66362,"ELEMENT_SET_NO":999,"REV_AT_EPOCH":1898,"BSTAR":0.0009975087,"MEAN_MOTION_DOT":0.00029296,"MEAN_MOTION_DDOT":0},{"OBJECT_NAME":"NOAA 17 DEB","OBJECT_ID":"2002-032DK","EPOCH":"2026-03-06T06:53:22.349472","MEAN_MOTION":15.29547844,"ECCENTRICITY":0.00135803,"INCLINATION":98.6735,"RA_OF_ASC_NODE":77.6727,"ARG_OF_PERICENTER":131.2945,"MEAN_ANOMALY":228.9463,"EPHEMERIS_TYPE":0,"CLASSIFICATION_TYPE":"U","NORAD_CAT_ID":49481,"ELEMENT_SET_NO":999,"REV_AT_EPOCH":24998,"BSTAR":0.011623019,"MEAN_MOTION_DOT":0.00349096,"MEAN_MOTION_DDOT":0}]
